IRIDIUM 39              
1 25042U 97069D   25305.31726533  .00000700  00000+0  17756-3 0  9994
2 25042  86.3922 152.3965 0016729 202.4866 157.5607 14.49413588468825
IRIDIUM 38              
1 25043U 97069E   25305.65240877  .00000556  00000+0  17654-3 0  9990
2 25043  86.4004 175.3799 0003148  48.0124 312.1342 14.38257882465711
IRIDIUM 42              
1 25077U 97077A   25305.61876888  .00000509  00000+0  16703-3 0  9991
2 25077  86.4016 181.7263 0002628  70.3379 289.8102 14.36484399460925
IRIDIUM 44              
1 25078U 97077B   25305.34108172  .00000553  00000+0  16815-3 0  9999
2 25078  86.3987 163.4243 0001106  24.0208 336.1043 14.40378948463441
IRIDIUM 45              
1 25104U 97082A   25305.53149474  .00023911  00000+0  72823-3 0  9990
2 25104  86.3574 340.9418 0104264 173.5349 186.7274 15.28556147472973
IRIDIUM 24              
1 25105U 97082B   25305.62234113  .00000645  00000+0  18945-3 0  9990
2 25105  86.3951  21.9896 0010809 354.9387   5.1702 14.42268164463027
IRIDIUM 51              
1 25262U 98018A   25305.59134555  .00062823  00000+0  88704-3 0  9995
2 25262  86.3798 347.2233 0066348  79.1291 281.7428 15.53711430468246
IRIDIUM 57              
1 25273U 98019B   25305.45147735  .00000543  00000+0  18022-3 0  9994
2 25273  86.3925  87.7076 0002051  88.1234 272.0197 14.36000358444485
